{"type": "Feature", "properties": {"name": "Uttarakhand"}, "geometry": {"type": "Polygon", "coordinates": [[[80.0598, 28.8255], [80.0518, 28.8204], [80.0592, 28.8169], [80.0681, 28.8029], [80.0587, 28.7885], [80.0617, 28.7833], [80.0523, 28.7783], [80.0301, 28.7487], [79.9542, 28.7229], [79.9455, 28.7306], [79.9437, 28.7352], [79.9465, 28.7424], [79.9436, 28.7487], [79.9386, 28.7504], [79.9432, 28.76], [79.9326, 28.7628], [79.9241, 28.7732], [79.9398, 28.7878], [79.9265, 28.7901], [79.9188, 28.7866], [79.9178, 28.7824], [79.9098, 28.7855], [79.9014, 28.782], [79.8973, 28.7863], [79.8843, 28.7901], [79.8833, 28.7946], [79.8731, 28.7973], [79.8747, 28.8024], [79.8696, 28.8084], [79.8785, 28.8149], [79.9056, 28.8031], [79.9155, 28.8043], [79.9108, 28.81], [79.9145, 28.8185], [79.8941, 28.8205], [79.8939, 28.8315], [79.8882, 28.8366], [79.8821, 28.837], [79.8834, 28.834], [79.8786, 28.8336], [79.8785, 28.8304], [79.8757, 28.8332], [79.8726, 28.8316], [79.8746, 28.8364], [79.8717, 28.8402], [79.8647, 28.8378], [79.8632, 28.8403], [79.8589, 28.8339], [79.8614, 28.8306], [79.8539, 28.8271], [79.851, 28.8286], [79.8541, 28.8242], [79.8463, 28.8232], [79.8466, 28.8175], [79.8529, 28.8138], [79.8466, 28.8105], [79.8508, 28.8105], [79.8503, 28.8061], [79.8529, 28.8062], [79.8493, 28.7997], [79.8455, 28.8008], [79.8461, 28.8048], [79.8415, 28.8043], [79.8383, 28.7976], [79.8269, 28.795], [79.8243, 28.7983], [79.82, 28.7962], [79.8146, 28.8027], [79.8139, 28.7969], [79.808, 28.801], [79.8072, 28.8057], [79.8165, 28.817], [79.8199, 28.8122], [79.819, 28.8055], [79.8243, 28.8073], [79.8292, 28.8215], [79.8372, 28.8324], [79.8313, 28.8308], [79.8238, 28.8391], [79.8273, 28.8417], [79.8309, 28.8378], [79.8368, 28.84], [79.8307, 28.8553], [79.8406, 28.8477], [79.8496, 28.8594], [79.8458, 28.8636], [79.8457, 28.8739], [79.8357, 28.875], [79.8355, 28.8711], [79.8325, 28.871], [79.8283, 28.8783], [79.8293, 28.8845], [79.818, 28.8879], [79.8138, 28.8866], [79.8147, 28.8838], [79.7998, 28.8875], [79.7933, 28.8829], [79.7886, 28.8728], [79.7808, 28.8715], [79.7668, 28.875], [79.7593, 28.8709], [79.7491, 28.8718], [79.7457, 28.86], [79.7365, 28.8563], [79.7264, 28.861], [79.7199, 28.8457], [79.7186, 28.8489], [79.7096, 28.8512], [79.7067, 28.8411], [79.69, 28.8454], [79.692, 28.8479], [79.6832, 28.85], [79.6819, 28.8569], [79.6674, 28.8598], [79.6634, 28.862], [79.6657, 28.8656], [79.6561, 28.8698], [79.6449, 28.8635], [79.636, 28.8669], [79.6309, 28.8612], [79.6261, 28.8667], [79.6133, 28.8529], [79.6039, 28.8569], [79.5844, 28.8463], [79.5757, 28.8505], [79.5735, 28.8547], [79.581, 28.8662], [79.5843, 28.8792], [79.5784, 28.8836], [79.5776, 28.8887], [79.5712, 28.8865], [79.5706, 28.8926], [79.5565, 28.8993], [79.5528, 28.8959], [79.5549, 28.8938], [79.5479, 28.891], [79.533, 28.8698], [79.5218, 28.8648], [79.5114, 28.8673], [79.5099, 28.8646], [79.4971, 28.8729], [79.4787, 28.8712], [79.4772, 28.8646], [79.4516, 28.8717], [79.4405, 28.8618], [79.4249, 28.8682], [79.431, 28.8869], [79.4277, 28.893], [79.4229, 28.8936], [79.4225, 28.9031], [79.4276, 28.9128], [79.4249, 28.9168], [79.4279, 28.9198], [79.4158, 28.9279], [79.419, 28.9401], [79.4075, 28.9523], [79.4047, 28.9493], [79.3906, 28.9474], [79.3873, 28.9498], [79.3818, 28.9699], [79.3771, 28.9714], [79.3724, 28.9875], [79.3621, 28.9815], [79.361, 28.972], [79.3652, 28.9708], [79.3647, 28.9681], [79.3215, 28.9719], [79.3119, 28.9771], [79.3099, 28.9718], [79.3127, 28.969], [79.3073, 28.9665], [79.2591, 28.9925], [79.2478, 29.0034], [79.251, 29.0103], [79.2316, 29.0152], [79.2117, 29.0276], [79.2036, 29.0208], [79.1943, 29.0198], [79.1908, 29.0232], [79.1938, 29.0156], [79.1859, 29.0177], [79.1809, 29.0129], [79.1711, 29.0119], [79.1758, 29.0158], [79.1684, 29.0195], [79.1653, 29.0178], [79.1624, 29.0293], [79.1675, 29.0323], [79.168, 29.0383], [79.1708, 29.0395], [79.1692, 29.0424], [79.1751, 29.0463], [79.1619, 29.049], [79.1425, 29.067], [79.1421, 29.082], [79.1515, 29.0955], [79.1483, 29.0992], [79.1532, 29.1016], [79.1508, 29.1035], [79.1535, 29.1152], [79.1269, 29.1327], [79.1195, 29.1258], [79.1119, 29.128], [79.0749, 29.1517], [79.0537, 29.1549], [79.0358, 29.1695], [79.0291, 29.1642], [79.0324, 29.1592], [79.0394, 29.1585], [79.0359, 29.1531], [79.0374, 29.1449], [79.0298, 29.147], [79.0238, 29.1556], [79.0178, 29.1539], [79.0211, 29.1459], [79.0149, 29.134], [79.0169, 29.1308], [79.0273, 29.1325], [79.0318, 29.1282], [79.0406, 29.1277], [79.0346, 29.1178], [79.0267, 29.1125], [79.0142, 29.1167], [79.0082, 29.112], [79.0017, 29.1223], [79.0042, 29.126], [78.9913, 29.1307], [78.9898, 29.1396], [78.9823, 29.1431], [78.9747, 29.136], [78.9728, 29.1269], [78.9642, 29.1306], [78.9565, 29.12], [78.9346, 29.1297], [78.9269, 29.1181], [78.9066, 29.1249], [78.9188, 29.1356], [78.911, 29.1445], [78.9155, 29.1525], [78.9129, 29.1544], [78.9064, 29.1517], [78.9089, 29.1639], [78.9017, 29.1696], [78.9087, 29.1786], [78.9034, 29.1783], [78.8946, 29.1858], [78.8997, 29.1859], [78.8964, 29.1936], [78.8901, 29.1923], [78.8867, 29.1951], [78.8913, 29.1981], [78.8906, 29.2012], [78.8855, 29.2033], [78.881, 29.2], [78.8752, 29.2052], [78.8833, 29.2115], [78.8785, 29.2143], [78.8795, 29.2189], [78.8717, 29.2228], [78.8764, 29.2254], [78.8745, 29.2303], [78.8707, 29.2273], [78.8586, 29.233], [78.8622, 29.2395], [78.8583, 29.2419], [78.8495, 29.2328], [78.8455, 29.2368], [78.8395, 29.2368], [78.8413, 29.2397], [78.8382, 29.2426], [78.8323, 29.2368], [78.82, 29.2321], [78.8076, 29.2366], [78.7984, 29.2445], [78.7914, 29.2461], [78.7898, 29.255], [78.7851, 29.2537], [78.7738, 29.262], [78.7702, 29.2671], [78.7732, 29.2712], [78.765, 29.2794], [78.7345, 29.2996], [78.7227, 29.2994], [78.7186, 29.3067], [78.723, 29.3035], [78.7272, 29.3056], [78.7345, 29.303], [78.7313, 29.3136], [78.7321, 29.3176], [78.7358, 29.3186], [78.7337, 29.322], [78.7407, 29.3205], [78.7407, 29.3158], [78.7503, 29.3174], [78.7495, 29.3233], [78.7538, 29.3313], [78.7665, 29.3375], [78.7775, 29.3258], [78.7868, 29.3262], [78.7905, 29.3306], [78.7934, 29.3282], [78.7954, 29.3251], [78.7895, 29.3154], [78.7959, 29.3118], [78.7982, 29.3191], [78.8047, 29.3193], [78.7999, 29.3346], [78.8105, 29.3402], [78.8247, 29.3672], [78.8303, 29.3681], [78.8259, 29.3656], [78.8275, 29.3543], [78.8402, 29.346], [78.8499, 29.3449], [78.856, 29.3498], [78.8511, 29.3556], [78.8519, 29.3604], [78.8603, 29.3583], [78.8787, 29.3661], [78.8796, 29.3694], [78.8757, 29.372], [78.8777, 29.375], [78.8873, 29.3731], [78.8922, 29.381], [78.9022, 29.385], [78.9118, 29.3938], [78.9115, 29.3997], [78.9184, 29.4036], [78.9257, 29.426], [78.9431, 29.4348], [78.9402, 29.4353], [78.9423, 29.4386], [78.9187, 29.4343], [78.9002, 29.4415], [78.8809, 29.4434], [78.8411, 29.4572], [78.8227, 29.4598], [78.8106, 29.4659], [78.7997, 29.4646], [78.745, 29.5008], [78.7112, 29.5004], [78.7063, 29.5027], [78.6505, 29.5461], [78.6385, 29.5467], [78.6177, 29.5581], [78.5804, 29.5864], [78.5327, 29.6388], [78.5215, 29.6579], [78.5214, 29.6935], [78.514, 29.7231], [78.4885, 29.7382], [78.454, 29.746], [78.4285, 29.7645], [78.4091, 29.7634], [78.3927, 29.7675], [78.3357, 29.7967], [78.3129, 29.7795], [78.3095, 29.78], [78.2927, 29.7591], [78.2845, 29.7618], [78.267, 29.7429], [78.2622, 29.7436], [78.2597, 29.7384], [78.2501, 29.7343], [78.2459, 29.7346], [78.2402, 29.7415], [78.2296, 29.7368], [78.2216, 29.7407], [78.2039, 29.7373], [78.2001, 29.7303], [78.2036, 29.7283], [78.196, 29.6927], [78.1884, 29.6923], [78.1805, 29.6969], [78.1716, 29.6916], [78.1376, 29.6636], [78.1305, 29.6526], [78.0815, 29.6352], [78.0867, 29.6251], [78.0575, 29.6307], [78.0488, 29.6147], [78.0331, 29.6117], [78.0183, 29.5983], [78.0152, 29.5873], [78.0216, 29.5809], [78.0008, 29.5863], [77.9952, 29.5958], [77.9864, 29.5844], [77.9749, 29.5851], [77.9731, 29.5804], [77.9671, 29.5802], [77.9403, 29.5928], [77.9333, 29.6006], [77.9484, 29.617], [77.9602, 29.6117], [77.9777, 29.6135], [77.9774, 29.6313], [77.9838, 29.6437], [77.9794, 29.6427], [77.9664, 29.6502], [77.9699, 29.6665], [77.9494, 29.6799], [77.9474, 29.6831], [77.9509, 29.6874], [77.9399, 29.6961], [77.951, 29.7016], [77.9496, 29.7042], [77.953, 29.7074], [77.947, 29.7125], [77.9409, 29.7109], [77.9381, 29.7145], [77.9346, 29.7112], [77.9264, 29.7143], [77.9198, 29.7051], [77.9169, 29.7056], [77.9158, 29.7023], [77.9201, 29.6993], [77.9125, 29.696], [77.9021, 29.7012], [77.8966, 29.7023], [77.8909, 29.6989], [77.8826, 29.7025], [77.879, 29.7003], [77.8795, 29.693], [77.8747, 29.6873], [77.8628, 29.6895], [77.8557, 29.6801], [77.8502, 29.68], [77.8386, 29.6705], [77.83, 29.6683], [77.799, 29.6862], [77.8105, 29.7024], [77.7711, 29.7145], [77.77, 29.7184], [77.7827, 29.7363], [77.7695, 29.7454], [77.7693, 29.7506], [77.7803, 29.7651], [77.7731, 29.7688], [77.7778, 29.775], [77.7724, 29.7801], [77.7747, 29.7911], [77.7654, 29.796], [77.7632, 29.8027], [77.7516, 29.8107], [77.759, 29.8186], [77.754, 29.8209], [77.7557, 29.8254], [77.7402, 29.8348], [77.744, 29.8399], [77.7419, 29.8519], [77.7234, 29.8551], [77.7141, 29.8703], [77.7208, 29.8762], [77.7169, 29.8785], [77.716, 29.8859], [77.7184, 29.8875], [77.7227, 29.8845], [77.7251, 29.8904], [77.7318, 29.8929], [77.7293, 29.9006], [77.7339, 29.8997], [77.7386, 29.9033], [77.7365, 29.9067], [77.7478, 29.9112], [77.743, 29.9182], [77.7429, 29.925], [77.7305, 29.9317], [77.7406, 29.9422], [77.743, 29.941], [77.7483, 29.9517], [77.7333, 29.956], [77.7406, 29.9696], [77.74, 29.9748], [77.746, 29.9806], [77.7439, 29.9836], [77.7604, 29.9952], [77.7554, 29.9991], [77.7642, 30.0045], [77.7619, 30.0094], [77.7758, 30.018], [77.782, 30.0187], [77.7855, 30.0279], [77.7794, 30.0307], [77.7814, 30.0336], [77.77, 30.0426], [77.7711, 30.0481], [77.7984, 30.0836], [77.7967, 30.0853], [77.8012, 30.0955], [77.8217, 30.0857], [77.828, 30.086], [77.8343, 30.0906], [77.833, 30.0946], [77.8368, 30.1036], [77.8494, 30.1048], [77.8604, 30.1133], [77.8661, 30.1192], [77.8812, 30.1508], [77.912, 30.1826], [77.9189, 30.2113], [77.9321, 30.2144], [77.9469, 30.2341], [77.9617, 30.2424], [77.9515, 30.2453], [77.9415, 30.2399], [77.937, 30.2492], [77.894, 30.2654], [77.8857, 30.267], [77.8796, 30.262], [77.8657, 30.2659], [77.8587, 30.2715], [77.8465, 30.2717], [77.8472, 30.2767], [77.839, 30.2746], [77.8328, 30.2802], [77.7942, 30.2972], [77.7611, 30.3183], [77.747, 30.3202], [77.7218, 30.3303], [77.7098, 30.3417], [77.6904, 30.376], [77.6861, 30.3793], [77.6781, 30.3757], [77.6765, 30.3878], [77.6597, 30.3906], [77.6566, 30.401], [77.6472, 30.4048], [77.6292, 30.398], [77.6229, 30.4053], [77.6185, 30.4024], [77.6029, 30.403], [77.6017, 30.3998], [77.5983, 30.4049], [77.5904, 30.4063], [77.576, 30.3974], [77.5723, 30.4105], [77.5987, 30.4282], [77.6227, 30.4347], [77.6319, 30.4313], [77.6451, 30.4326], [77.6524, 30.4481], [77.6708, 30.4443], [77.6902, 30.4481], [77.721, 30.4731], [77.7394, 30.4761], [77.7822, 30.5003], [77.7999, 30.5011], [77.8185, 30.5081], [77.8198, 30.5241], [77.8258, 30.5263], [77.8278, 30.5311], [77.8203, 30.5453], [77.8226, 30.5538], [77.8178, 30.5611], [77.8064, 30.5546], [77.7996, 30.5577], [77.7941, 30.5533], [77.7836, 30.5599], [77.774, 30.5579], [77.7566, 30.5857], [77.7429, 30.5939], [77.7468, 30.5975], [77.7432, 30.6016], [77.7461, 30.604], [77.7519, 30.6018], [77.7556, 30.6048], [77.7643, 30.596], [77.7717, 30.597], [77.7689, 30.6146], [77.7711, 30.6164], [77.7802, 30.6129], [77.7962, 30.6137], [77.7925, 30.621], [77.7861, 30.6245], [77.786, 30.63], [77.7906, 30.6341], [77.7812, 30.6467], [77.7875, 30.6557], [77.7925, 30.657], [77.7921, 30.6602], [77.7885, 30.6623], [77.7812, 30.66], [77.7725, 30.6692], [77.7474, 30.6799], [77.7469, 30.6945], [77.7526, 30.6967], [77.7504, 30.7002], [77.7558, 30.707], [77.7456, 30.7139], [77.7467, 30.7198], [77.7366, 30.7242], [77.7373, 30.7304], [77.7332, 30.7354], [77.7283, 30.7342], [77.7215, 30.7417], [77.7088, 30.7398], [77.705, 30.7428], [77.7024, 30.7463], [77.7089, 30.7526], [77.7038, 30.7652], [77.7213, 30.7759], [77.7319, 30.7919], [77.7329, 30.8011], [77.7456, 30.8132], [77.7484, 30.8217], [77.7613, 30.8261], [77.7577, 30.8352], [77.744, 30.8467], [77.7572, 30.8601], [77.7582, 30.8769], [77.7632, 30.8805], [77.7734, 30.8776], [77.7792, 30.8604], [77.8057, 30.8533], [77.8036, 30.8651], [77.7988, 30.8681], [77.8014, 30.8934], [77.8153, 30.9045], [77.8159, 30.9104], [77.8109, 30.9167], [77.8133, 30.9219], [77.7918, 30.9218], [77.7826, 30.9168], [77.7628, 30.9182], [77.7639, 30.9305], [77.7527, 30.9339], [77.749, 30.9535], [77.7541, 30.9645], [77.7724, 30.9744], [77.7937, 30.9688], [77.814, 30.9539], [77.8243, 30.9506], [77.8376, 30.9532], [77.8322, 30.9597], [77.8242, 30.9572], [77.8144, 30.9619], [77.8163, 30.9729], [77.824, 30.9805], [77.8242, 30.9885], [77.8318, 30.9941], [77.822, 31.0044], [77.825, 31.0099], [77.8099, 31.0111], [77.8075, 31.0163], [77.807, 31.0268], [77.8114, 31.0317], [77.8175, 31.0331], [77.8298, 31.0288], [77.8216, 31.0468], [77.816, 31.0501], [77.8168, 31.0568], [77.8113, 31.0592], [77.8229, 31.0587], [77.822, 31.0553], [77.8243, 31.0555], [77.838, 31.0727], [77.8512, 31.0734], [77.8637, 31.094], [77.8605, 31.1017], [77.8638, 31.1086], [77.8907, 31.1218], [77.889, 31.1331], [77.894, 31.134], [77.9004, 31.1423], [77.8987, 31.1503], [77.9086, 31.1541], [77.9248, 31.1505], [77.9432, 31.1613], [77.9515, 31.1614], [77.9589, 31.171], [77.9673, 31.1734], [77.9847, 31.157], [78.0008, 31.162], [78.0144, 31.1579], [78.0206, 31.1516], [78.0303, 31.151], [78.0297, 31.1642], [78.041, 31.173], [78.0426, 31.1786], [78.0659, 31.1872], [78.1036, 31.1855], [78.1235, 31.2002], [78.1286, 31.2009], [78.1334, 31.2084], [78.1477, 31.2107], [78.1536, 31.2183], [78.1581, 31.219], [78.1602, 31.2256], [78.187, 31.2271], [78.1995, 31.2173], [78.2124, 31.2196], [78.2203, 31.234], [78.2469, 31.2305], [78.2507, 31.2334], [78.2495, 31.2401], [78.2605, 31.2398], [78.276, 31.2616], [78.2829, 31.2663], [78.2919, 31.26], [78.3063, 31.26], [78.3111, 31.2832], [78.318, 31.279], [78.3319, 31.2777], [78.3399, 31.2828], [78.352, 31.2807], [78.3703, 31.2864], [78.3835, 31.2826], [78.3863, 31.2715], [78.3962, 31.2754], [78.3977, 31.2663], [78.4072, 31.2563], [78.4028, 31.248], [78.4069, 31.2423], [78.4142, 31.2397], [78.4259, 31.2443], [78.4342, 31.2547], [78.4436, 31.2444], [78.4557, 31.2411], [78.4728, 31.2185], [78.4798, 31.2139], [78.4837, 31.199], [78.5076, 31.196], [78.5516, 31.2], [78.5681, 31.2192], [78.5782, 31.2253], [78.5968, 31.2252], [78.6093, 31.2293], [78.6226, 31.2242], [78.626, 31.218], [78.647, 31.2148], [78.6491, 31.2023], [78.66, 31.1912], [78.658, 31.1851], [78.6719, 31.197], [78.6868, 31.1978], [78.7034, 31.1891], [78.7652, 31.1858], [78.8099, 31.1984], [78.8164, 31.1945], [78.8174, 31.1897], [78.8105, 31.1803], [78.8107, 31.172], [78.8249, 31.1636], [78.823, 31.1578], [78.8312, 31.1407], [78.8381, 31.1384], [78.8415, 31.1298], [78.848, 31.1252], [78.8652, 31.1201], [78.8729, 31.1089], [78.8854, 31.0988], [78.9086, 31.0989], [78.9127, 31.1077], [78.9206, 31.1108], [78.9259, 31.1095], [78.9322, 31.1008], [78.9507, 31.0981], [78.9631, 31.1013], [78.973, 31.1082], [78.99, 31.1086], [79.0022, 31.1125], [79.0089, 31.11], [78.9996, 31.1348], [78.9908, 31.1381], [78.9876, 31.1434], [78.9908, 31.1483], [78.9882, 31.1543], [78.9905, 31.1614], [78.9859, 31.1739], [78.9575, 31.1867], [78.9583, 31.1905], [78.948, 31.1986], [78.9438, 31.2066], [78.9487, 31.2134], [78.9477, 31.2169], [78.929, 31.2171], [78.9221, 31.2254], [78.9161, 31.2487], [78.8861, 31.2686], [78.8812, 31.2843], [78.882, 31.2869], [78.8973, 31.2902], [78.9002, 31.2951], [78.8964, 31.3034], [78.9043, 31.3093], [78.9105, 31.3097], [78.916, 31.3157], [78.9162, 31.3214], [78.9247, 31.3283], [78.9305, 31.3415], [78.9382, 31.3473], [78.9433, 31.3657], [78.9671, 31.356], [78.977, 31.363], [78.9879, 31.3557], [78.9852, 31.3474], [78.9987, 31.3399], [79.0151, 31.347], [79.0182, 31.3574], [79.0131, 31.3604], [79.0073, 31.3785], [79.0152, 31.387], [79.013, 31.4074], [79.0164, 31.4241], [79.0215, 31.4228], [79.0229, 31.4273], [79.0369, 31.43], [79.0419, 31.4295], [79.0476, 31.4225], [79.0505, 31.4266], [79.0587, 31.4263], [79.0673, 31.4377], [79.0661, 31.4471], [79.0716, 31.4561], [79.0834, 31.446], [79.0961, 31.4517], [79.1049, 31.4423], [79.1157, 31.4372], [79.139, 31.4336], [79.1388, 31.4259], [79.1445, 31.4139], [79.1536, 31.4038], [79.168, 31.3965], [79.168, 31.391], [79.1737, 31.3829], [79.1666, 31.3737], [79.1669, 31.361], [79.1885, 31.3527], [79.2116, 31.3499], [79.22, 31.3412], [79.2333, 31.3339], [79.2213, 31.3247], [79.2172, 31.3124], [79.2224, 31.3093], [79.2259, 31.3014], [79.2466, 31.2917], [79.2458, 31.2827], [79.2431, 31.2751], [79.2224, 31.2629], [79.2219, 31.2599], [79.2471, 31.2474], [79.2582, 31.237], [79.2789, 31.2372], [79.2861, 31.225], [79.2963, 31.2176], [79.2999, 31.2072], [79.3005, 31.1877], [79.3053, 31.1744], [79.3009, 31.1667], [79.3057, 31.1628], [79.3066, 31.1526], [79.3184, 31.1359], [79.326, 31.1312], [79.3352, 31.1325], [79.337, 31.1266], [79.3491, 31.121], [79.3621, 31.1231], [79.3633, 31.1187], [79.3716, 31.1135], [79.389, 31.1169], [79.4033, 31.1138], [79.4095, 31.1084], [79.4143, 31.0927], [79.4121, 31.0763], [79.4163, 31.0725], [79.4174, 31.0445], [79.4264, 31.024], [79.4338, 31.0228], [79.4699, 31.0355], [79.4905, 31.0315], [79.5069, 31.0321], [79.5099, 31.0259], [79.5084, 31.015], [79.5164, 31.0118], [79.5201, 31.0055], [79.5161, 30.9972], [79.5266, 30.9889], [79.5479, 30.9896], [79.5462, 30.9841], [79.5391, 30.979], [79.539, 30.9747], [79.5461, 30.9693], [79.5526, 30.958], [79.5643, 30.9555], [79.5691, 30.9492], [79.5918, 30.9454], [79.6009, 30.9393], [79.6011, 30.9332], [79.6056, 30.9403], [79.6198, 30.9502], [79.6367, 30.9534], [79.6634, 30.9656], [79.6654, 30.9827], [79.6738, 30.9824], [79.6992, 30.9706], [79.7102, 30.9767], [79.7169, 30.9751], [79.7319, 30.9787], [79.7371, 30.9811], [79.7469, 31.0016], [79.7532, 31.0064], [79.7754, 30.9869], [79.7918, 30.9866], [79.7969, 30.9787], [79.8075, 30.9802], [79.8172, 30.9717], [79.8385, 30.9722], [79.8557, 30.9765], [79.8648, 30.9727], [79.8744, 30.9673], [79.8823, 30.9541], [79.8833, 30.9403], [79.8888, 30.9379], [79.8864, 30.9304], [79.8889, 30.9183], [79.9107, 30.9133], [79.9322, 30.88], [79.9402, 30.8846], [79.9501, 30.8833], [79.9627, 30.8888], [79.9687, 30.8814], [79.9909, 30.8763], [79.997, 30.8661], [80.0095, 30.8686], [80.0327, 30.8427], [80.0418, 30.8393], [80.0531, 30.8444], [80.0551, 30.8382], [80.0733, 30.8216], [80.0868, 30.7962], [80.0971, 30.7924], [80.1095, 30.78], [80.1242, 30.7805], [80.128, 30.7866], [80.1378, 30.7873], [80.1375, 30.7904], [80.1414, 30.7924], [80.1518, 30.7891], [80.1555, 30.8048], [80.1722, 30.8086], [80.178, 30.8051], [80.1838, 30.7912], [80.1921, 30.781], [80.1993, 30.7791], [80.1928, 30.7698], [80.1934, 30.7663], [80.209, 30.7525], [80.214, 30.7514], [80.2272, 30.7591], [80.236, 30.7593], [80.2371, 30.7508], [80.2438, 30.7449], [80.2492, 30.7443], [80.2487, 30.7199], [80.2333, 30.7091], [80.2325, 30.6911], [80.1984, 30.6866], [80.1971, 30.6729], [80.1934, 30.6675], [80.2071, 30.6507], [80.2198, 30.6425], [80.2198, 30.6344], [80.2123, 30.627], [80.2148, 30.6211], [80.2118, 30.6183], [80.2174, 30.6104], [80.2093, 30.5883], [80.2126, 30.5842], [80.2221, 30.579], [80.2352, 30.5814], [80.2544, 30.5645], [80.2611, 30.5686], [80.2834, 30.57], [80.3154, 30.565], [80.3225, 30.5443], [80.3322, 30.5382], [80.3393, 30.5253], [80.3469, 30.5208], [80.3658, 30.5284], [80.3859, 30.5181], [80.4004, 30.5195], [80.4106, 30.5255], [80.4178, 30.5244], [80.4166, 30.5179], [80.4292, 30.5139], [80.4449, 30.4974], [80.4661, 30.4905], [80.4833, 30.4896], [80.4895, 30.4843], [80.4984, 30.4872], [80.5073, 30.4744], [80.5199, 30.4709], [80.5284, 30.4571], [80.5409, 30.4483], [80.5486, 30.4479], [80.5588, 30.453], [80.5655, 30.4632], [80.5751, 30.4633], [80.5826, 30.4674], [80.5959, 30.4672], [80.5986, 30.4709], [80.6072, 30.4717], [80.6084, 30.4637], [80.613, 30.4585], [80.6239, 30.4625], [80.637, 30.4502], [80.6583, 30.4425], [80.6771, 30.4292], [80.6779, 30.4229], [80.6873, 30.4195], [80.6897, 30.4143], [80.6998, 30.413], [80.7083, 30.4175], [80.7344, 30.3999], [80.7486, 30.3868], [80.7508, 30.3794], [80.7728, 30.3658], [80.7798, 30.3554], [80.7867, 30.3539], [80.7868, 30.3428], [80.8012, 30.3335], [80.8037, 30.3235], [80.8181, 30.3222], [80.8267, 30.3144], [80.8384, 30.3142], [80.8472, 30.3175], [80.8638, 30.3141], [80.8724, 30.3071], [80.8734, 30.3027], [80.8844, 30.2997], [80.8902, 30.3028], [80.9085, 30.3037], [80.9074, 30.2975], [80.9144, 30.2885], [80.9314, 30.2785], [80.9256, 30.2735], [80.9263, 30.2684], [80.9355, 30.2629], [80.9491, 30.2701], [80.9818, 30.272], [80.9996, 30.2675], [81.0082, 30.2621], [81.0114, 30.2557], [81.0321, 30.2468], [81.0268, 30.2273], [81.0309, 30.2259], [81.0302, 30.2195], [81.0452, 30.211], [81.0445, 30.2061], [81.0353, 30.2031], [81.0345, 30.1976], [81.0089, 30.1946], [80.9952, 30.1864], [80.9857, 30.1868], [80.9743, 30.1925], [80.9695, 30.1896], [80.9709, 30.1867], [80.9524, 30.1849], [80.9284, 30.1748], [80.9162, 30.1879], [80.9162, 30.1968], [80.9222, 30.2076], [80.9197, 30.2157], [80.9074, 30.2227], [80.895, 30.2116], [80.8834, 30.195], [80.8839, 30.1884], [80.88, 30.1826], [80.8624, 30.1696], [80.8715, 30.1603], [80.8781, 30.1337], [80.8769, 30.1286], [80.871, 30.1234], [80.8571, 30.1216], [80.8428, 30.1153], [80.841, 30.1113], [80.8455, 30.1044], [80.8367, 30.0982], [80.8225, 30.1001], [80.8152, 30.0971], [80.7905, 30.0738], [80.7794, 30.0571], [80.7618, 30.0499], [80.7559, 30.0398], [80.7567, 30.0242], [80.744, 30.0045], [80.7361, 29.9997], [80.7188, 30.0006], [80.7121, 29.9898], [80.6902, 29.9735], [80.6753, 29.9573], [80.6514, 29.9547], [80.6294, 29.9639], [80.6019, 29.957], [80.5834, 29.9377], [80.5725, 29.9175], [80.5719, 29.8913], [80.5662, 29.8782], [80.5583, 29.8708], [80.5621, 29.8664], [80.5549, 29.8602], [80.5535, 29.8493], [80.5389, 29.8458], [80.5365, 29.8383], [80.5311, 29.8374], [80.5222, 29.8269], [80.5071, 29.8224], [80.4926, 29.8008], [80.4934, 29.7946], [80.4791, 29.7947], [80.4643, 29.8009], [80.444, 29.7984], [80.4349, 29.8047], [80.4281, 29.7977], [80.4163, 29.795], [80.4132, 29.7912], [80.4073, 29.7942], [80.4072, 29.7837], [80.3976, 29.7652], [80.3976, 29.7587], [80.3891, 29.7601], [80.3853, 29.7509], [80.368, 29.7486], [80.3661, 29.7406], [80.371, 29.7334], [80.368, 29.7237], [80.3763, 29.7197], [80.3738, 29.7145], [80.3808, 29.6985], [80.3812, 29.6894], [80.3854, 29.6843], [80.3855, 29.676], [80.3921, 29.6654], [80.3992, 29.6638], [80.4002, 29.6609], [80.4085, 29.661], [80.4102, 29.6544], [80.4159, 29.6531], [80.4146, 29.6453], [80.4197, 29.6403], [80.42, 29.6286], [80.4103, 29.6238], [80.406, 29.6127], [80.4092, 29.6085], [80.4092, 29.5975], [80.4046, 29.5901], [80.392, 29.5807], [80.3904, 29.5732], [80.3807, 29.5715], [80.3794, 29.5612], [80.3644, 29.5638], [80.3607, 29.5561], [80.3448, 29.5522], [80.3416, 29.5412], [80.3489, 29.5412], [80.3578, 29.5315], [80.3492, 29.5238], [80.342, 29.5108], [80.3328, 29.5116], [80.3292, 29.5057], [80.3152, 29.5002], [80.312, 29.4945], [80.3125, 29.4829], [80.3038, 29.4836], [80.2972, 29.4882], [80.2928, 29.4777], [80.2855, 29.4753], [80.3004, 29.4505], [80.2789, 29.4499], [80.2806, 29.4555], [80.2752, 29.4571], [80.2678, 29.4543], [80.273, 29.451], [80.2721, 29.4486], [80.2559, 29.4501], [80.2528, 29.4471], [80.2449, 29.4479], [80.2421, 29.4427], [80.2474, 29.434], [80.2429, 29.411], [80.2751, 29.3914], [80.2728, 29.3848], [80.279, 29.3781], [80.272, 29.3726], [80.2717, 29.3629], [80.2797, 29.3578], [80.2809, 29.346], [80.291, 29.3369], [80.2937, 29.3274], [80.3076, 29.3221], [80.3176, 29.3131], [80.3184, 29.3014], [80.3116, 29.291], [80.3051, 29.2871], [80.3045, 29.2722], [80.2971, 29.2503], [80.2999, 29.242], [80.2908, 29.2332], [80.296, 29.2216], [80.2938, 29.211], [80.2979, 29.2052], [80.2921, 29.197], [80.2865, 29.1946], [80.2761, 29.2071], [80.2588, 29.2071], [80.255, 29.2206], [80.248, 29.2209], [80.2411, 29.2015], [80.2585, 29.1878], [80.2609, 29.1748], [80.2581, 29.1659], [80.2615, 29.1571], [80.269, 29.1499], [80.2713, 29.1404], [80.2587, 29.1378], [80.2547, 29.132], [80.2478, 29.1316], [80.2333, 29.1193], [80.2098, 29.1207], [80.2014, 29.1297], [80.1835, 29.1364], [80.1774, 29.1277], [80.1659, 29.1258], [80.1615, 29.1135], [80.1446, 29.1026], [80.1295, 29.0613], [80.1382, 29.0601], [80.1259, 29.0312], [80.1313, 29.0297], [80.1248, 29.0115], [80.1358, 29.0074], [80.1269, 29.0055], [80.118, 28.9814], [80.1009, 28.9868], [80.0967, 28.9757], [80.0589, 28.9158], [80.0651, 28.8367], [80.0598, 28.8255]]]}}